STARLINK-32305          
1 61523U 24183Q   24306.91667824 -.01071637  00000+0 -82009-2 0  9990
2 61523  53.1539 284.7648 0001511  68.7651  78.6558 15.74022684  3949
STARLINK-32296          
1 61524U 24183R   24306.91667824 -.01076112  00000+0 -82374-2 0  9999
2 61524  53.1538 284.7688 0001569  80.7714  64.7306 15.74026593  3838
STARLINK-32298          
1 61525U 24183S   24306.91667824 -.01081148  00000+0 -82816-2 0  9996
2 61525  53.1541 284.7612 0000902  95.7211  53.6139 15.74029338  3996
STARLINK-32293          
1 61526U 24183T   24306.91667824 -.01099027  00000+0 -84273-2 0  9991
2 61526  53.1535 284.7569 0001553 103.6854  47.5601 15.74042413  4048
STARLINK-32313          
1 61527U 24183U   24306.91667824 -.01090195  00000+0 -83575-2 0  9993
2 61527  53.1561 284.7487 0001611  72.4624  82.6332 15.74026311  3993
STARLINK-32319          
1 61528U 24183V   24306.91667824 -.01066101  00000+0 -81561-2 0  9997
2 61528  53.1541 284.7531 0001199  86.3449  66.8267 15.74019226  4047
STARLINK-32351          
1 61529U 24183W   24306.91667824 -.01145341  00000+0 -88223-2 0  9994
2 61529  53.1554 284.7447 0001009 132.7385  24.2708 15.74056258  3990
STARLINK-32261          
1 61530U 24183X   24306.91667824 -.01113385  00000+0 -85435-2 0  9991
2 61530  53.1562 284.7410 0001676  83.4536  75.4433 15.74059483  4055
STARLINK-32358          
1 61531U 24183Y   24306.91667824 -.01002822  00000+0 -76151-2 0  9990
2 61531  53.1540 284.7361 0002029 104.3835  56.7251 15.74031116  3945
STARLINK-11354 [DTC]    
1 61532U 24184A   24306.91667824 -.00759391  00000+0 -49154-2 0  9994
2 61532  53.1592 150.6119 0000704  63.2836 226.2402 15.77401489  3889
STARLINK-11323 [DTC]    
1 61533U 24184B   24306.75001157 -.00799624  00000+0 -44016-2 0  9993
2 61533  53.1587 151.3679 0000729  59.7228  38.9415 15.81048194  3972
STARLINK-11338 [DTC]    
1 61534U 24184C   24306.91667824 -.00760905  00000+0 -45665-2 0  9992
2 61534  53.1589 150.5666 0000684  53.8644 257.8325 15.79075590  3888
STARLINK-11362 [DTC]    
1 61535U 24184D   24306.85679874 -.00009036  00000+0 -36696-4 0  9991
2 61535  53.1594 150.8046 0001163  73.7055 286.4097 15.83812659  4010
STARLINK-11295 [DTC]    
1 61536U 24184E   24306.92063229 -.00246172  00000+0 -11712-2 0  9995
2 61536  53.1599 150.4930 0001337  87.7706 272.3471 15.82764478  2950
STARLINK-11331 [DTC]    
1 61537U 24184F   24306.85648780 -.00012067  00000+0 -50297-4 0  9996
2 61537  53.1596 150.8029 0000528  71.1529 288.9552 15.83738724  2940
STARLINK-11325 [DTC]    
1 61538U 24184G   24306.85613933  .00020057  00000+0  91766-4 0  9991
2 61538  53.1593 150.7998 0001150  98.4100 261.7054 15.83771281  3910
STARLINK-11332 [DTC]    
1 61539U 24184H   24306.85578384 -.00001853  00000+0 -49470-5 0  9993
2 61539  53.1595 150.7976 0000478 102.3786 257.7291 15.83831111  2945
STARLINK-11350 [DTC]    
1 61540U 24184J   24306.91667824 -.00274151  00000+0 -12384-2 0  9994
2 61540  53.1586 150.4889 0000811  76.1597 273.1861 15.83932124  4040
STARLINK-11357 [DTC]    
1 61541U 24184K   24306.85511823  .00014032  00000+0  65020-4 0  9990
2 61541  53.1593 150.7936 0000912  77.2045 282.9081 15.83836043  2949
STARLINK-11322 [DTC]    
1 61542U 24184L   24306.85478488 -.00012074  00000+0 -50192-4 0  9990
2 61542  53.1595 150.7906 0000955  93.6980 266.4153 15.83793139  4000
STARLINK-11364 [DTC]    
1 61543U 24184M   24306.85444345  .00028336  00000+0  12784-3 0  9996
2 61543  53.1590 150.7881 0000921  80.2605 279.8523 15.83828818  2940
STARLINK-11349 [DTC]    
1 61544U 24184N   24306.85412414 -.00011899  00000+0 -49498-4 0  9990
2 61544  53.1592 150.7869 0000735  98.7251 261.3856 15.83759618  2949
STARLINK-32406          
1 61545U 24184P   24306.91667824 -.01431952  00000+0 -15579-1 0  9992
2 61545  53.1594 151.0385 0000943  64.1323  13.9668 15.65542999  3997
STARLINK-32445          
1 61546U 24184Q   24306.91667824 -.01431392  00000+0 -15572-1 0  9994
2 61546  53.1595 151.0467 0001047  51.2181  23.0475 15.65542448  4049
STARLINK-32411          
1 61547U 24184R   24306.91667824 -.01431130  00000+0 -15569-1 0  9991
2 61547  53.1595 151.0426 0001020  50.3279  25.8541 15.65542417  3997
STARLINK-32424          
1 61548U 24184S   24306.91667824 -.01430734  00000+0 -15564-1 0  9996
2 61548  53.1594 151.0348 0001088  49.9277  30.0874 15.65542160  3998
STARLINK-32389          
1 61549U 24184T   24306.91667824 -.01430210  00000+0 -15558-1 0  9999
2 61549  53.1595 151.0267 0001060  51.4507  32.3976 15.65541874  3993
STARLINK-32476          
1 61550U 24184U   24306.91667824 -.01428933  00000+0 -15542-1 0  9993
2 61550  53.1595 151.0230 0001289  57.1759  28.5893 15.65540750  4044
STARLINK-32366          
1 61551U 24184V   24306.91667824 -.01431239  00000+0 -15570-1 0  9998
2 61551  53.1595 151.0308 0001093  55.1589  26.7729 15.65542286  3990
GAOFEN-12 05            
1 61571U 24186A   24306.91933591  .00002423  00000+0  32503-3 0  9992
2 61571  97.9141 312.0219 0001215 113.1986 246.9354 14.80274281  1695
CZ-4C R/B               
1 61572U 24186B   24306.94458707  .00011337  00000+0  82101-3 0  9990
2 61572  97.8985 312.5757 0049978 351.7857   8.2544 15.03137306  2545
STARLINK-11356 [DTC]    
1 61574U 24187A   24306.91667824 -.00056475  00000+0 -34316-3 0  9991
2 61574  53.1575 207.5319 0000759  87.9085  10.6045 15.76741881  3294
STARLINK-11376 [DTC]    
1 61575U 24187B   24306.91667824 -.00105608  00000+0 -64783-3 0  9996
2 61575  53.1570 207.4748 0000515  82.9752  43.2459 15.76780319  3291
STARLINK-11372 [DTC]    
1 61576U 24187C   24306.91667824 -.00877969  00000+0 -57234-2 0  9995
2 61576  53.1565 207.4187 0000594 107.1576  46.1743 15.77560492  3347
STARLINK-11375 [DTC]    
1 61577U 24187D   24306.91667824 -.00895190  00000+0 -55612-2 0  9990
2 61577  53.1560 207.3677 0000585 102.7974  75.3638 15.78670242  3342
STARLINK-11285 [DTC]    
1 61578U 24187E   24306.91667824 -.00896020  00000+0 -53044-2 0  9991
2 61578  53.1558 207.3209 0000568 100.7418 100.2005 15.79725604  3297
STARLINK-11275 [DTC]    
1 61579U 24187F   24306.91667824 -.00897764  00000+0 -50559-2 0  9996
2 61579  53.1555 207.2785 0000639 104.5757 116.8116 15.80808608  3294
STARLINK-11342 [DTC]    
1 61580U 24187G   24306.91667824 -.00899376  00000+0 -48238-2 0  9990
2 61580  53.1554 207.2403 0000633 105.9897 133.9542 15.81856004  3394
STARLINK-11374 [DTC]    
1 61581U 24187H   24306.91667824 -.00905245  00000+0 -45871-2 0  9994
2 61581  53.1552 207.2053 0001177 116.3601 140.4829 15.83066801  3398
STARLINK-11373 [DTC]    
1 61582U 24187J   24306.91667824 -.00797852  00000+0 -38137-2 0  9995
2 61582  53.1552 207.1759 0001204 118.0505 153.0888 15.84024145  3340
STARLINK-11368 [DTC]    
1 61583U 24187K   24306.91667824 -.00337084  00000+0 -15307-2 0  9997
2 61583  53.1553 207.1468 0001489  88.9606 196.3331 15.83978231  3291
STARLINK-11370 [DTC]    
1 61584U 24187L   24306.91667824 -.00011176  00000+0 -46226-4 0  9995
2 61584  53.1554 207.1164 0000500 135.3569 164.6290 15.83789468  3344
STARLINK-11361 [DTC]    
1 61585U 24187M   24306.91667824 -.00488802  00000+0 -22208-2 0  9992
2 61585  53.1554 207.0882 0000572 102.7794 210.9273 15.84343006  3349
STARLINK-11360 [DTC]    
1 61586U 24187N   24306.91667824 -.00478430  00000+0 -21240-2 0  9994
2 61586  53.1555 207.0608 0000584 108.9836 218.1438 15.84798019  3391
STARLINK-32353          
1 61587U 24187P   24306.91667824 -.00230961  00000+0 -16414-2 0  9997
2 61587  53.1567 207.5002 0001689  77.0733  36.0480 15.73829198  3404
STARLINK-32325          
1 61588U 24187Q   24306.91667824 -.00260174  00000+0 -18547-2 0  9996
2 61588  53.1568 207.5047 0001391  85.7699  25.4289 15.73845855  3454
STARLINK-32416          
1 61589U 24187R   24306.91667824 -.00191594  00000+0 -13558-2 0  9993
2 61589  53.1571 207.4965 0001856  88.8758  26.1679 15.73807779  3457
STARLINK-32413          
1 61590U 24187S   24306.91667824 -.00229322  00000+0 -16291-2 0  9993
2 61590  53.1571 207.4922 0002330  88.0811  28.8698 15.73830405  3454
STARLINK-32409          
1 61591U 24187T   24306.91667824 -.00194774  00000+0 -13789-2 0  9995
2 61591  53.1571 207.4881 0001776  70.7589  48.1206 15.73808058  3451
STARLINK-32422          
1 61592U 24187U   24306.91667824 -.00196560  00000+0 -13915-2 0  9992
2 61592  53.1573 207.4842 0001198  92.2906  28.4952 15.73816599  3459
STARLINK-32397          
1 61593U 24187V   24306.91667824 -.00246605  00000+0 -17550-2 0  9998
2 61593  53.1574 207.4799 0001970  74.8143  47.8800 15.73842419  3456
ONEWEB-0015             
1 61594U 24188A   24306.91667824 -.01006830  00000+0 -11558+0 0  9994
2 61594  86.5280 165.0594 0005100 154.5114  73.7945 14.88999394  2925
ONEWEB-0687             
1 61595U 24188B   24306.87447022 -.00362164  00000+0 -39628-1 0  9990
2 61595  86.5170 165.0746 0004549 153.4810 206.6650 14.89991875  3120
ONEWEB-0688             
1 61596U 24188C   24306.91667824 -.00789884  00000+0 -90626-1 0  9997
2 61596  86.5297 165.0654 0004263 149.3413  70.4858 14.88793630  2905
ONEWEB-0689             
1 61597U 24188D   24306.91667824 -.00797870  00000+0 -93202-1 0  9995
2 61597  86.5305 165.0664 0002639 139.3991  63.2498 14.88107521  2977
ONEWEB-0690             
1 61598U 24188E   24306.87163474 -.00359942  00000+0 -38567-1 0  9990
2 61598  86.5097 165.0775 0005375 156.8542 203.2928 14.90814091  4847
ONEWEB-0691             
1 61599U 24188F   24306.91667824 -.00498912  00000+0 -55606-1 0  9998
2 61599  86.5241 165.0645 0005116 155.2249  78.8170 14.89602674  3120
ONEWEB-0692             
1 61600U 24188G   24306.91667824 -.00784746  00000+0 -93114-1 0  9990
2 61600  86.5384 165.0762 0001367 154.0755  33.4880 14.87434107  3064
